ONEWEB-0558             
1 56059U 23043P   25354.27050575  .00000043  00000+0  72622-4 0  9996
2 56059  87.9221 279.6697 0001693  58.6479 301.4820 13.21824236134604
ONEWEB-0559             
1 56060U 23043Q   25354.78885382  .00000011  00000+0 -55138-5 0  9996
2 56060  87.9226 279.5601 0001897  67.1957 292.9377 13.21824682134681
ONEWEB-0566             
1 56061U 23043R   25354.78227837 -.00000035  00000+0 -11635-3 0  9991
2 56061  87.9227 279.5596 0001829  64.3978 295.7345 13.21825733134665
ONEWEB-0568             
1 56062U 23043S   25354.11408265 -.00000047  00000+0 -15729-3 0  9996
2 56062  87.9048 264.4261 0001444  81.9374 278.1921 13.16595766135410
ONEWEB-0574             
1 56063U 23043T   25354.77570046 -.00000020  00000+0 -79621-4 0  9999
2 56063  87.9224 279.5487 0001900  79.1486 280.9861 13.21826556134709
ONEWEB-0575             
1 56064U 23043U   25354.79172059 -.00000067  00000+0 -20815-3 0  9995
2 56064  87.9046 264.2911 0001823  87.4415 272.6925 13.16596441135490
ONEWEB-0576             
1 56065U 23043V   25354.01276012  .00000009  00000+0 -91010-5 0  9997
2 56065  87.9051 264.4473 0001735  81.6061 278.5267 13.16595404135387
ONEWEB-0577             
1 56066U 23043W   25354.77905650 -.00000027  00000+0 -10335-3 0  9998
2 56066  87.9054 264.2939 0002264  91.1668 268.9722 13.16595733135512
